*******************************************************************************
JPL/HORIZONS                410 Chloris (A896 AC)          2023-Sep-04 11:06:11
Rec #:     410 (+COV) Soln.date: 2023-Aug-23_16:04:17   # obs: 7152 (1906-2023)
 
IAU76/J2000 helio. ecliptic osc. elements (au, days, deg., period=Julian yrs):
 
  EPOCH=  2457272.5 ! 2015-Sep-07.00 (TDB)         Residual RMS= .26585
   EC= .2414275051894035   QR= 2.066716825845335   TP= 2457026.7401861008
   OM= 96.94963018831746   W=  172.9803589379993   IN= 10.96233238243107
   A= 2.724481628300221    MA= 53.86282378845168   ADIST= 3.382246430755107
   PER= 4.49712            N= .219168557           ANGMOM= .02755387
   DAN= 3.3742             DDN= 2.06973            L= 270.0568371
   B= 1.3316632            MOID= 1.05098999        TP= 2015-Jan-04.2401861008
 
Asteroid physical parameters (km, seconds, rotational period in hours):
   GM= n.a.                RAD= 59.4645            ROTPER= 32.5
   H= 8.48                 G= .150                 B-V= .748
                           ALBEDO= .043            STYP= Ch

ASTEROID comments: 
1: soln ref.= JPL#76, OCC=0
2: source=ORB
*******************************************************************************


*******************************************************************************
Ephemeris / API_USER Mon Sep  4 11:06:11 2023 Pasadena, USA      / Horizons
*******************************************************************************
Target body name: 410 Chloris (A896 AC)           {source: JPL#76}
Center body name: Solar System Barycenter (0)     {source: DE441}
Center-site name: BODY CENTER
*******************************************************************************
Start time      : A.D. 2023-Aug-12 00:00:00.0000 TDB
Stop  time      : A.D. 2023-Aug-13 00:00:00.0000 TDB
Step-size       : 2880 minutes
*******************************************************************************
Center geodetic : 0.0, 0.0, 0.0                   {E-lon(deg),Lat(deg),Alt(km)}
Center cylindric: 0.0, 0.0, 0.0                   {E-lon(deg),Dxy(km),Dz(km)}
Center radii    : (undefined)
Small perturbers: Yes                             {source: SB441-N16}
Output units    : KM-S
Calendar mode   : Mixed Julian/Gregorian
Output type     : GEOMETRIC cartesian states
Output format   : 2 (position and velocity)
Reference frame : Ecliptic of J2000.0
*******************************************************************************
Initial IAU76/J2000 heliocentric ecliptic osculating elements (au, days, deg.):
  EPOCH=  2457272.5 ! 2015-Sep-07.00 (TDB)         Residual RMS= .26585        
   EC= .2414275051894035   QR= 2.066716825845335   TP= 2457026.7401861008      
   OM= 96.94963018831746   W=  172.9803589379993   IN= 10.96233238243107       
  Equivalent ICRF heliocentric cartesian coordinates (au, au/d):
   X= 2.382401270671056E+00  Y=-2.204400750258017E-01  Z=-5.837499160240643E-01
  VX= 4.361186270529989E-03 VY= 1.011991012326210E-02 VZ= 3.203819195281349E-03
Asteroid physical parameters (km, seconds, rotational period in hours):        
   GM= n.a.                RAD= 59.4645            ROTPER= 32.5                
   H= 8.48                 G= .150                 B-V= .748                   
                           ALBEDO= .043            STYP= Ch                    
*******************************************************************************
JDTDB
   X     Y     Z
   VX    VY    VZ
*******************************************************************************
$$SOE
2460168.500000000 = A.D. 2023-Aug-12 00:00:00.0000 TDB 
 X =-2.507972950341904E+08 Y =-2.131296840661474E+08 Z = 5.297911117818756E+07
 VX= 1.616745134784445E+01 VY=-1.431486030389827E+01 VZ=-2.774049142543337E+00
$$EOE
*******************************************************************************
 
TIME

  Barycentric Dynamical Time ("TDB" or T_eph) output was requested. This
continuous coordinate time is equivalent to the relativistic proper time
of a clock at rest in a reference frame co-moving with the solar system
barycenter but outside the system's gravity well. It is the independent
variable in the solar system relativistic equations of motion.

  TDB runs at a uniform rate of one SI second per second and is independent
of irregularities in Earth's rotation.
 
CALENDAR SYSTEM

  Mixed calendar mode was active such that calendar dates after AD 1582-Oct-15
(if any) are in the modern Gregorian system. Dates prior to 1582-Oct-5 (if any)
are in the Julian calendar system, which is automatically extended for dates
prior to its adoption on 45-Jan-1 BC.  The Julian calendar is useful for
matching historical dates. The Gregorian calendar more accurately corresponds
to the Earth's orbital motion and seasons. A "Gregorian-only" calendar mode is
available if such physical events are the primary interest.

REFERENCE FRAME AND COORDINATES

  Ecliptic at the standard reference epoch

    Reference epoch: J2000.0
    X-Y plane: adopted Earth orbital plane at the reference epoch
               Note: IAU76 obliquity of 84381.448 arcseconds wrt ICRF X-Y plane
    X-axis   : ICRF
    Z-axis   : perpendicular to the X-Y plane in the directional (+ or -) sense
               of Earth's north pole at the reference epoch.

  Symbol meaning:

    JDTDB    Julian Day Number, Barycentric Dynamical Time
      X      X-component of position vector (km)
      Y      Y-component of position vector (km)
      Z      Z-component of position vector (km)
      VX     X-component of velocity vector (km/sec)                           
      VY     Y-component of velocity vector (km/sec)                           
      VZ     Z-component of velocity vector (km/sec)                           

ABERRATIONS AND CORRECTIONS

 Geometric state vectors have NO corrections or aberrations applied.

Computations by ...

    Solar System Dynamics Group, Horizons On-Line Ephemeris System
    4800 Oak Grove Drive, Jet Propulsion Laboratory
    Pasadena, CA  91109   USA

    General site: https://ssd.jpl.nasa.gov/
    Mailing list: https://ssd.jpl.nasa.gov/email_list.html
    System news : https://ssd.jpl.nasa.gov/horizons/news.html
    User Guide  : https://ssd.jpl.nasa.gov/horizons/manual.html
    Connect     : browser        https://ssd.jpl.nasa.gov/horizons/app.html#/x
                  API            https://ssd-api.jpl.nasa.gov/doc/horizons.html
                  command-line   telnet ssd.jpl.nasa.gov 6775
                  e-mail/batch   https://ssd.jpl.nasa.gov/ftp/ssd/hrzn_batch.txt
                  scripts        https://ssd.jpl.nasa.gov/ftp/ssd/SCRIPTS
    Author      : Jon.D.Giorgini@jpl.nasa.gov
*******************************************************************************
